LAOSAT 1                
1 41034U 15067A   26189.02593212 -.00000327  00000+0  00000+0 0  9992
2 41034   0.0412 196.7620 0002426 221.7261   5.3539  1.00272331 39069
TELSTAR 12V             
1 41036U 15068A   26188.71237491 -.00000104  00000+0  00000+0 0  9997
2 41036   0.0185  70.6764 0002243  35.3256  61.1281  1.00270650 38837
ELEKTRO-L 2             
1 41105U 15074A   26188.92632618 -.00000107  00000+0  00000+0 0  9997
2 41105   6.7424  70.2697 0000653 234.7968 299.7776  1.00273213 38715
COSMOS 2513             
1 41121U 15075A   26189.15894098 -.00000123  00000+0  00000+0 0  9992
2 41121   0.0630 105.4786 0002991 339.3870 338.7230  1.00271995 38758
EXPRESS-AMU1            
1 41191U 15082A   26189.15018759  .00000171  00000+0  00000+0 0  9991
2 41191   0.0189  39.0029 0002372  76.6512 260.6068  1.00270220 38474
GAOFEN-4                
1 41194U 15083A   26189.06780808 -.00000320  00000+0  00000+0 0  9993
2 41194   0.4079  83.8617 0004284 117.2357 215.0491  1.00271148 38735
BELINTERSAT-1           
1 41238U 16001A   26189.15330762  .00000122  00000+0  00000+0 0  9992
2 41238   0.0205  92.6670 0001806 338.3569 321.7553  1.00271631 38445
IRNSS-1E                
1 41241U 16003A   26188.57475388 -.00000304  00000+0  00000+0 0  9990
2 41241  33.2771  59.4542 0019202 178.8949   5.8336  1.00269196 38286
EUTELSAT 9B             
1 41310U 16005A   26189.14490090  .00000078  00000+0  00000+0 0  9997
2 41310   0.0194  38.4387 0001081  74.6771 234.1710  1.00275727 38325
SES-9                   
1 41380U 16013A   26189.11642233 -.00000330  00000+0  00000+0 0  9990
2 41380   0.0173 322.8047 0002232 138.4933 334.9883  1.00270202 37647
EUTELSAT 65 WEST A      
1 41382U 16014A   26189.05890465 -.00000261  00000+0  00000+0 0  9991
2 41382   0.0727 309.3128 0002175 157.3340 135.3962  1.00272183 37733
IRNSS-1F                
1 41384U 16015A   26188.93562766  .00000170  00000+0  00000+0 0  9998
2 41384   5.3995  96.3106 0017391 183.6305  15.3161  1.00277721 37874
BEIDOU-2 IGSO-6         
1 41434U 16021A   26177.11016981 -.00000145  00000+0  00000+0 0  9995
2 41434  60.2385  37.9495 0057558 231.0163 137.2672  1.00258926 37578
IRNSS-1G                
1 41469U 16027A   26188.66973470 -.00000321  00000+0  00000+0 0  9992
2 41469   5.2447  97.0006 0005975   9.1698 190.2027  1.00274910 37385
JCSAT-2B                
1 41471U 16028A   26189.19141852 -.00000150  00000+0  00000+0 0  9996
2 41471   0.0186  31.5106 0000925  86.3928  31.1638  1.00270916 37347
THAICOM 8               
1 41552U 16031A   26188.94472772 -.00000106  00000+0  00000+0 0  9991
2 41552   0.0612  38.9342 0003225  33.0866 272.4842  1.00271206 36923
INTELSAT 31 (IS-31)     
1 41581U 16035A   26189.18223644 -.00000136  00000+0  00000+0 0  9999
2 41581   0.0347 238.5086 0001013  48.3346 329.8548  1.00270297 36893
BEIDOU-2 G7             
1 41586U 16037A   26189.11642233 -.00000339  00000+0  00000+0 0  9993
2 41586   1.7685  69.4673 0006395   6.2627   2.7126  1.00265962  7101
ABS-2A (MONGOLSAT-1)    
1 41588U 16038A   26189.15790096  .00000000  00000+0  00000+0 0  9995
2 41588   0.0183  21.0428 0001300  31.6137   5.0238  1.00267551 36916
EUTELSAT 117 WEST B     
1 41589U 16038B   26188.69218147  .00000003  00000+0  00000+0 0  9999
2 41589   0.0043 194.6007 0000098 339.2111 244.0229  1.00274900 36869
BRISAT                  
1 41591U 16039A   26188.67389471  .00000000  00000+0  00000+0 0  9997
2 41591   0.0172   5.9287 0001998 103.9101 208.8981  1.00268930 36818
ECHOSTAR 18             
1 41592U 16039B   26189.12464492 -.00000267  00000+0  00000+0 0  9992
2 41592   0.0188  38.6602 0001415  80.3880 150.5437  1.00272101 36832
MUOS-5                  
1 41622U 16041A   26189.12244075 -.00000096  00000+0  00000+0 0  9992
2 41622   2.1608 302.0383 0199098 260.6242  22.3496  1.00272030 37293
TIANTONG-1 1            
1 41725U 16048A   26189.09189557 -.00000305  00000+0  00000+0 0  9995
2 41725   3.8873  43.5629 0005150  55.1457 321.8264  1.00272393 36481
JCSAT-16                
1 41729U 16050A   26189.17150771  .00000000  00000+0  00000+0 0  9998
2 41729   0.0254  37.0561 0000850  93.2744   1.4935  1.00269463 36282
USA 270                 
1 41744U 16052A   26176.62624484 -.00000284  00000+0  00000+0 0  9995
2 41744   4.2178  77.0981 0000668 157.1810  56.2495  0.99500516 28218
USA 271                 
1 41745U 16052B   26176.75914149 -.00000236  00000+0  00000+0 0  9997
2 41745   4.1909  77.1447 0001955 290.7679 281.9940  0.99833204 28007
INTELSAT 36 (IS-36)     
1 41747U 16053A   26188.80017597 -.00000012  00000+0  00000+0 0  9992
2 41747   0.0091  10.2892 0000975  27.8198 244.1989  1.00285795 36163
INSAT-3DR               
1 41752U 16054A   26189.19608500 -.00000062  00000+0  00000+0 0  9997
2 41752   0.0514  89.3306 0010480 181.2584 160.1529  1.00272156 36021
GSAT-18                 
1 41793U 16060A   26189.19608500 -.00000062  00000+0  00000+0 0  9999
2 41793   0.0167  87.0062 0005488 349.8375 353.8697  1.00271330 35733
SKY MUSTER 2 (NBN1B)    
1 41794U 16060B   26189.17176771 -.00000229  00000+0  00000+0 0  9993
2 41794   0.0153 331.4596 0001527 139.0922  22.2069  1.00270614 35738
HIMAWARI-9              
1 41836U 16064A   26188.88581801  .00000000  00000+0  00000+0 0  9991
2 41836   0.0160  20.5201 0002188 154.3343 210.6522  1.00271011 35417
